GLOBALSTAR M075         
1 37192U 10054E   25299.94357633 -.00000104  00000+0 -34946-5 0  9996
2 37192  51.9922 140.3679 0000927  86.9767  54.3604 12.62269309692484
GLOBALSTAR M073         
1 37193U 10054F   25299.79071351 -.00000104  00000+0 -22615-5 0  9990
2 37193  52.0072  54.7514 0000607 127.0524  38.1585 12.62263626694455
GLOBALSTAR M083         
1 37739U 11033A   25299.96314240 -.00000086  00000+0  10120-3 0  9994
2 37739  51.9884   2.7770 0000444 133.5115  37.3599 12.62263948663497
GLOBALSTAR M088         
1 37740U 11033B   25299.98792876 -.00000086  00000+0  99278-4 0  9995
2 37740  52.0211 268.5652 0000605  62.4065 339.7797 12.62269226659049
GLOBALSTAR M091         
1 37741U 11033C   25299.84116112 -.00000070  00000+0  18603-3 0  9999
2 37741  51.9992 232.3211 0000759  77.9102 317.4483 12.62260997659813
GLOBALSTAR M085         
1 37742U 11033D   25299.98152942 -.00000078  00000+0  14195-3 0  9996
2 37742  52.0114 182.9833 0000959  89.8314 283.7415 12.62266268660348
GLOBALSTAR M081         
1 37743U 11033E   25299.86387483 -.00000077  00000+0  14696-3 0  9999
2 37743  51.9946 186.0429 0000745  84.0325 354.4645 12.62269707660474
GLOBALSTAR M089         
1 37744U 11033F   25300.00136687 -.00000102  00000+0  95758-5 0  9996
2 37744  51.9906 139.8264 0000818  72.7139  91.7033 12.62272152661338
